CROCUBE                 
1 62394U 24247T   26170.49048578  .00032668  00000+0  60622-3 0  9997
2 62394  44.9701 246.5654 0007740 349.0739  10.9982 15.48397693 83708
FORESAIL-1 PRIME        
1 66778U 25276DS  26170.43439938  .00004058  00000+0  19871-3 0  9990
2 66778  97.4197 243.6644 0003961  98.6161 261.5522 15.18719306 30740
KNACKSAT-2              
1 67683U 98067XZ  26170.59247606  .00040473  00000+0  49084-3 0  9990
2 67683  51.6307 282.3774 0008934 225.7617 134.2643 15.60167582 20658
